{
  "type": "FeatureCollection",
  "features": [
    {
      "type": "Feature",
      "properties": {
        "norad_id": 53093,
        "name": "COSMOS 2251 DEB",
        "group": "cosmos-2251-debris",
        "lat": 73.65742436377936,
        "lon": -4.6946057620276616,
        "alt_km": 745.5300782121476,
        "timestamp": "2025-12-25T11:37:44.838038+00:00",
        "meta_object_name": "COSMOS 2251 DEB",
        "meta_object_id": "1993-036BYP",
        "meta_epoch": "2025-12-24T20:14:40.810560",
        "meta_mean_motion": 14.41944337,
        "meta_eccentricity": 0.00198853,
        "meta_inclination": 74.0363,
        "meta_ra_of_asc_node": 279.0208,
        "meta_arg_of_pericenter": 354.2607,
        "meta_mean_anomaly": 5.8318,
        "meta_ephemeris_type": 0,
        "meta_classification_type": "U",
        "meta_norad_cat_id": 53093,
        "meta_element_set_no": 999,
        "meta_rev_at_epoch": 17900,
        "meta_bstar": 0.00087886613,
        "meta_mean_motion_dot": 2.861e-05,
        "meta_mean_motion_ddot": 0,
        "tle_line1": "1 53093U 93036BYP 25358.84352790  .00002861  00000+0  87887-3 0  9999",
        "tle_line2": "2 53093  74.0363 279.0208 0019885 354.2607   5.8318 14.41944337179003"
      },
      "geometry": {
        "type": "Point",
        "coordinates": [
          -4.6946057620276616,
          73.65742436377936
        ]
      }
    }
  ]
}